[{"OBJECT_NAME":"BANDWAGON-4 OBJECT M","OBJECT_ID":"2025-248M","EPOCH":"2026-03-09T00:50:26.830464","MEAN_MOTION":15.24295413,"ECCENTRICITY":0.00129441,"INCLINATION":45.4108,"RA_OF_ASC_NODE":294.9904,"ARG_OF_PERICENTER":207.5285,"MEAN_ANOMALY":152.4918,"EPHEMERIS_TYPE":0,"CLASSIFICATION_TYPE":"U","NORAD_CAT_ID":66304,"ELEMENT_SET_NO":999,"REV_AT_EPOCH":1803,"BSTAR":0.00095703617,"MEAN_MOTION_DOT":0.00023645,"MEAN_MOTION_DDOT":0},{"OBJECT_NAME":"STARLINK-36454","OBJECT_ID":"2026-008AB","EPOCH":"2026-03-09T10:10:08.508576","MEAN_MOTION":15.27592972,"ECCENTRICITY":0.00052206,"INCLINATION":43.0057,"RA_OF_ASC_NODE":206.528,"ARG_OF_PERICENTER":293.9378,"MEAN_ANOMALY":66.0927,"EPHEMERIS_TYPE":0,"CLASSIFICATION_TYPE":"U","NORAD_CAT_ID":67470,"ELEMENT_SET_NO":999,"REV_AT_EPOCH":953,"BSTAR":0.001028495,"MEAN_MOTION_DOT":0.00028167,"MEAN_MOTION_DDOT":0}]
